[{"OBJECT_NAME":"JIAOTONG VDES","OBJECT_ID":"2022-164A","EPOCH":"2026-03-10T00:04:46.178400","MEAN_MOTION":14.45999441,"ECCENTRICITY":0.00085577,"INCLINATION":98.2515,"RA_OF_ASC_NODE":90.8897,"ARG_OF_PERICENTER":269.1792,"MEAN_ANOMALY":90.8419,"EPHEMERIS_TYPE":0,"CLASSIFICATION_TYPE":"U","NORAD_CAT_ID":54588,"ELEMENT_SET_NO":999,"REV_AT_EPOCH":17174,"BSTAR":0.00012084635,"MEAN_MOTION_DOT":3.88e-6,"MEAN_MOTION_DDOT":0},{"OBJECT_NAME":"GAOFEN-3 DEB","OBJECT_ID":"2016-049D","EPOCH":"2026-03-08T06:38:41.630208","MEAN_MOTION":14.46614225,"ECCENTRICITY":0.00056717,"INCLINATION":98.3229,"RA_OF_ASC_NODE":80.4919,"ARG_OF_PERICENTER":310.2847,"MEAN_ANOMALY":49.7849,"EPHEMERIS_TYPE":0,"CLASSIFICATION_TYPE":"U","NORAD_CAT_ID":42679,"ELEMENT_SET_NO":999,"REV_AT_EPOCH":50524,"BSTAR":0.00010306409,"MEAN_MOTION_DOT":3.29e-6,"MEAN_MOTION_DDOT":0}]
